{"type": "FeatureCollection", "features": [{"type": "Feature", "properties": {"name": "Silver Spring CDP", "geoid": "2472450", "source_name": "U.S. Census Bureau TIGERweb", "source_url": "https://tigerweb.geo.census.gov/arcgis/rest/services/TIGERweb/Places_CouSub_ConCity_SubMCD/MapServer/5", "note": "Census Designated Place boundary for Silver Spring, Maryland."}, "geometry": {"type": "Polygon", "coordinates": [[[-77.06377999995634, 39.011405000259714], [-77.06386399962192, 39.011300000001164], [-77.06375700039011, 39.01126899994824], [-77.06300099980658, 39.01063899973343], [-77.06295700032396, 39.01060399975083], [-77.06286600008737, 39.01053600025367], [-77.06277400002585, 39.01039799984139], [-77.0627279999951, 39.01029500001072], [-77.06266000022303, 39.01002099990709], [-77.0624610000314, 39.00956699996679], [-77.06238499986343, 39.00947100015353], [-77.06241599982555, 39.0093489999992], [-77.0623699997948, 39.0092199997788], [-77.06231600026645, 39.00868200002418], [-77.06232399976406, 39.008486999790335], [-77.06229399962683, 39.008186000128106], [-77.06227100006062, 39.008082999868385], [-77.06204199973176, 39.007727999775724], [-77.06200400009692, 39.00758300014955], [-77.0620109997696, 39.00752599968078], [-77.06216399993049, 39.00739200019801], [-77.06217099960318, 39.00736200013314], [-77.06216399993049, 39.007182999784334], [-77.06209500033353, 39.00704099996922], [-77.06204199973176, 39.006790000046195], [-77.06196499973885, 39.00671300033901], [-77.0619120000354, 39.00659500018092], [-77.06145400027602, 39.006491999698696], [-77.06137100043534, 39.006421999800395], [-77.06130199994004, 39.006358999972285], [-77.06125599990928, 39.00625199995845], [-77.06121800027447, 39.00621400033213], [-77.06118700031232, 39.00619499981323], [-77.0608969998841, 39.006125999943414], [-77.06088199981548, 39.00607599986413], [-77.06081300021852, 39.00599999970389], [-77.06075200011914, 39.00584700020833], [-77.06086699974686, 39.00555800025827], [-77.06085900024927, 39.0051229997089], [-77.06087400031787, 39.00492800013488], [-77.06084400018065, 39.004836999917], [-77.06074500044645, 39.00476000017822], [-77.06062999992041, 39.00470300022697], [-77.06050100004897, 39.00470300022697], [-77.06037899985023, 39.004729999695215], [-77.06011899955922, 39.00485600010256], [-77.0600659998558, 39.00490100004407], [-77.05992100009082, 39.00514199981765], [-77.05984400009793, 39.00517200012593], [-77.05980599956479, 39.005160999921294], [-77.059623000165, 39.005015999919706], [-77.0594480002628, 39.004932000095735], [-77.05934100013269, 39.00485600010256], [-77.05908900023762, 39.0044700003282], [-77.05908199966662, 39.004325000306395], [-77.05903599963585, 39.00424099966198], [-77.05901999974233, 39.00415399996141], [-77.05892900040405, 39.00402799969986], [-77.05884499984013, 39.00384499996751], [-77.05877600024317, 39.0037610001493], [-77.05873799971, 39.00367700023129], [-77.05877600024317, 39.003424999878995], [-77.05895199997028, 39.00310100030098], [-77.05895899964295, 39.002834000044196], [-77.05904300020686, 39.002742000253036], [-77.05920399986533, 39.002623999753915], [-77.05964599973122, 39.00242199974417], [-77.06011899955922, 39.00204000007758], [-77.06022599968935, 39.00191799967272], [-77.0602719997201, 39.001833999660796], [-77.06037100035263, 39.001605000235415], [-77.06039399991884, 39.00144899984264], [-77.06044699962229, 39.00135800003644], [-77.06047799958444, 39.00134200008143], [-77.06058499971455, 39.00137300029639], [-77.06062999992041, 39.00140700026885], [-77.06075999961675, 39.00157099966], [-77.06083599978473, 39.001598000323604], [-77.0610580004409, 39.00156000029166], [-77.06112600021295, 39.00148699993421], [-77.06122499994714, 39.00144499968485], [-77.0612709999779, 39.00140700026885], [-77.06130199994004, 39.0013269998149], [-77.06140099967425, 39.00128900033552], [-77.06146199977361, 39.001128999768454], [-77.06156100040613, 39.001006999887046], [-77.06173200011035, 39.00085199996893], [-77.06182800036983, 39.000765999989454], [-77.06204199973176, 39.00065199988805], [-77.06221699963393, 39.00051099993107], [-77.06228600012922, 39.00030799976692], [-77.06228600012922, 39.00010600012591], [-77.0623699997948, 38.999918999778274], [-77.06247699992493, 38.999850999783185], [-77.06259900012367, 38.99974399969969], [-77.06269000036026, 38.999637000152475], [-77.06275099956133, 38.99952999974536], [-77.06277400002585, 38.99938900034495], [-77.06275899995724, 38.9991529998335], [-77.06278900009447, 38.998957999861254], [-77.06285000019385, 38.99888199973367], [-77.0629949999588, 38.99878999969052], [-77.06306399955577, 38.99870300026814], [-77.06301800042333, 38.99851200007768], [-77.06291100029321, 38.99836699971314], [-77.06281199966068, 38.99817999965651], [-77.06268699998722, 38.9977490001862], [-77.06269000036026, 38.99771799977972], [-77.06270299988074, 38.99731000010034], [-77.06266100004795, 38.9970350002145], [-77.06266100004795, 38.99680800012801], [-77.06272299997224, 38.996598000103944], [-77.06289000037681, 38.996452000245185], [-77.06299400013388, 38.99624199986275], [-77.06297300021748, 38.99603099978835], [-77.06282799955422, 38.995675000185564], [-77.06270299988074, 38.99541600013151], [-77.06264000013155, 38.995206000165496], [-77.06280699963781, 38.99504400024469], [-77.06320199964803, 38.994897999972416], [-77.06345100006837, 38.99473600004467], [-77.06343799964958, 38.99465899978525], [-77.06338499994614, 38.994524999668926], [-77.06337700044851, 38.994476000255986], [-77.06340699968744, 38.99443400003403], [-77.06336200037993, 38.99428899969121], [-77.06326199992249, 38.99420900026565], [-77.06307899962438, 38.99419000001352], [-77.06297999989019, 38.99413999987685], [-77.0629039997222, 38.994071000118964], [-77.06261400019228, 38.9937209999264], [-77.06246900042731, 38.99362900015501], [-77.06230899969545, 38.99337299970638], [-77.06212600029566, 38.9929270003292], [-77.06208000026491, 38.99280500026986], [-77.06203400023415, 38.99259900019594], [-77.06198800020339, 38.99251100032727], [-77.06198800020339, 38.992450000314435], [-77.06188899957088, 38.99223299978534], [-77.06166000014034, 38.99188599975423], [-77.0615530000102, 38.99164500021035], [-77.06149199991084, 38.99155000034431], [-77.06151500037538, 38.991511999803585], [-77.0615310002689, 38.991428000005875], [-77.06171399966868, 38.99127899975373], [-77.06214899986188, 38.99120299975737], [-77.06242300039656, 38.99110700015972], [-77.06248399959762, 38.991077000171494], [-77.062544999697, 38.99100400017031], [-77.06259900012367, 38.990992999857504], [-77.06273600039103, 38.990818000046886], [-77.0627279999951, 38.99071500033507], [-77.06267500029165, 38.990615000003714], [-77.06261400019228, 38.99056199990352], [-77.06251499955975, 38.99052800030573], [-77.06252200013077, 38.99048900006934], [-77.06247699992493, 38.99040600030032], [-77.06239300025933, 38.99032199988821], [-77.06234700022858, 38.99022599979384], [-77.06235499972621, 38.990122999918746], [-77.06240800032796, 38.99006600004548], [-77.06241599982555, 38.98995899982867], [-77.06250000038946, 38.98985999967973], [-77.06250700006217, 38.989756999970254], [-77.06256099959052, 38.98967300018433], [-77.06257599965913, 38.98961199982019], [-77.06262199968988, 38.98957000020275], [-77.06268299978926, 38.98937899979952], [-77.06269000036026, 38.98923400027151], [-77.0627210003224, 38.98913099965108], [-77.06271299992648, 38.988974999686846], [-77.06275099956133, 38.98878799994806], [-77.06274399988862, 38.98868900025599], [-77.06275899995724, 38.98865100027393], [-77.06274399988862, 38.988505999952785], [-77.06275899995724, 38.9884559999899], [-77.06268500033738, 38.98816899998048], [-77.0627070000787, 38.98804700009844], [-77.06276099960706, 38.987956999695825], [-77.06278700044464, 38.987934000334896], [-77.06295300012602, 38.98778499970974], [-77.06303099994379, 38.98766299986408], [-77.06303400031685, 38.98762699980077], [-77.06287500030821, 38.98729200031205], [-77.06235100042656, 38.986760000077545], [-77.06225900036505, 38.98662200006976], [-77.06222599985476, 38.98657200017257], [-77.06205900034851, 38.98632000034877], [-77.0619820003556, 38.98625899988801], [-77.06187100002752, 38.98622399971436], [-77.0617000003233, 38.98620799982872], [-77.06138200030598, 38.986248000234305], [-77.06098599957255, 38.986359999992736], [-77.06073299985256, 38.986507000323265], [-77.06004800031243, 38.987000000300355], [-77.05969699978485, 38.98731100032132], [-77.05960600044656, 38.98737700001981], [-77.0595100001871, 38.98742899982354], [-77.05932299969103, 38.98744400024323], [-77.05925800029202, 38.98743999999194], [-77.05915299981173, 38.987400000259974], [-77.05903499981093, 38.987308999842845], [-77.0589469999474, 38.98720200034601], [-77.05883800016746, 38.987105000316554], [-77.05843700030945, 38.98693799983198], [-77.05843599958622, 38.986813000231685], [-77.05839799995141, 38.986699999894704], [-77.05831099991275, 38.98643299989582], [-77.05825099963832, 38.98635499977662], [-77.0581450002314, 38.98632499986908], [-77.0581030003986, 38.9863420003303], [-77.05802100038284, 38.986374999940736], [-77.05766999985526, 38.98666599983834], [-77.05737600012738, 38.986854000191926], [-77.05684800004778, 38.98722699972741], [-77.0567519997883, 38.98726800014613], [-77.05673900026784, 38.98727400018836], [-77.05660299982539, 38.98731100032132], [-77.05653300040352, 38.98735700013881], [-77.05626899991455, 38.98753200012768], [-77.05623999960224, 38.98757099989865], [-77.0559140000873, 38.987793000173], [-77.05568499975847, 38.98788100032183], [-77.05542299981764, 38.987924000124686], [-77.05518299961813, 38.98789199972178], [-77.05506299996753, 38.98790700004334], [-77.0550189995866, 38.987935000216154], [-77.0549900001726, 38.98798200020704], [-77.05479699982875, 38.9883789998802], [-77.05475400017103, 38.98842600027452], [-77.05456300037532, 38.98846699999876], [-77.05433700041952, 38.98843100034435], [-77.05422600009145, 38.988361999908186], [-77.05419199975624, 38.98830800033961], [-77.05402400042507, 38.98819299984097], [-77.05382299968531, 38.98802699970854], [-77.05347399970584, 38.987794999939595], [-77.05334200035968, 38.98768600001131], [-77.0532100001152, 38.98761100023225], [-77.05303500021303, 38.987556000204094], [-77.05300699972561, 38.987502000020626], [-77.05308200006868, 38.987337000252204], [-77.05255800018705, 38.98699099985285], [-77.05237499988894, 38.986915000139966], [-77.05234499975172, 38.986891999742205], [-77.05232899985819, 38.98681799971718], [-77.05176899999154, 38.987243999972016], [-77.05045500008947, 38.988172000312616], [-77.0496190000383, 38.98882099981464], [-77.04713299962609, 38.99082399978819], [-77.04670900020187, 38.991166000262396], [-77.04651300038329, 38.991323999952], [-77.04608099966484, 38.991621999953175], [-77.04543899978242, 38.992066000228206], [-77.04486300002225, 38.99250999981245], [-77.04420199987327, 38.99301900031497], [-77.04391900001605, 38.99323700033504], [-77.04255599971017, 38.99428700010809], [-77.04233300012741, 38.99447700004489], [-77.0418469998806, 38.99492900021801], [-77.04173599955251, 38.99503299986164], [-77.04137499987749, 38.995361999661185], [-77.04088199995799, 38.99584500030949], [-77.03794100015942, 38.993565000304194], [-77.03752600005774, 38.99325300002821], [-77.03719100032198, 38.9929919998686], [-77.03682499972578, 38.9927050000987], [-77.03650099986066, 38.992421000015185], [-77.03627499990486, 38.99220899989833], [-77.03621899982836, 38.99215799993684], [-77.03613400033785, 38.99206200023818], [-77.03567800022827, 38.991704999692594], [-77.03498000026937, 38.991090999981424], [-77.03407999974577, 38.99038999996349], [-77.03353099974979, 38.98996299993755], [-77.03288300001958, 38.989456000217814], [-77.03282899959291, 38.98941399980961], [-77.03236300033592, 38.989044000223686], [-77.03111999968064, 38.98809400001492], [-77.03107299982497, 38.98805700029128], [-77.02963400024944, 38.986923999898885], [-77.02960900013508, 38.98690399988993], [-77.02841099968565, 38.98596499998651], [-77.02810600008712, 38.98572100009579], [-77.02699499967633, 38.984870000262774], [-77.02687000000289, 38.98477499968278], [-77.02659600036648, 38.98451199982293], [-77.02573299965282, 38.983832999652606], [-77.024260999567, 38.98271899993125], [-77.02317000014602, 38.98185699998717], [-77.02314699968149, 38.98183899987808], [-77.02235599983615, 38.981329999981384], [-77.02233800029282, 38.98138000008941], [-77.02038900018103, 38.9798729996792], [-77.02146799990643, 38.98182399966733], [-77.02204100019189, 38.98281800029147], [-77.02291800025094, 38.984286999934675], [-77.02303000040395, 38.98445900004089], [-77.0228169999686, 38.984795000293225], [-77.02233800029282, 38.98548099972627], [-77.02191099959722, 38.98606399999705], [-77.02146899973135, 38.98667100003248], [-77.02103400043649, 38.987276999860164], [-77.02076699957448, 38.98763199992703], [-77.02034700034824, 38.98821599981599], [-77.01867600007078, 38.98715200016023], [-77.01860800029871, 38.98714000005456], [-77.01789799974594, 38.986693999803826], [-77.01720399998499, 38.98614799987628], [-77.01661599963093, 38.98572499974595], [-77.0165019998281, 38.98567100026048], [-77.0164259996601, 38.98576700024828], [-77.01575399964048, 38.9864150002519], [-77.01490000004596, 38.98589300020924], [-77.0143960002558, 38.98559499982869], [-77.01479299991583, 38.984995999725484], [-77.01460999961772, 38.984946999999856], [-77.01421299995768, 38.98548500008827], [-77.0138470002598, 38.98599200032047], [-77.01317500024015, 38.98692300000333], [-77.01232300029545, 38.98812899996221], [-77.01172599972057, 38.988987000179684], [-77.0116439997048, 38.98908000026457], [-77.01158000013069, 38.98893400025686], [-77.01125399971747, 38.98867199966018], [-77.01079000011028, 38.98825400003158], [-77.01014599967972, 38.98796500013969], [-77.00917800028238, 38.98734599995751], [-77.00620200032371, 38.98741499998755], [-77.00542399999884, 38.9871479998925], [-77.00508500006515, 38.98713699967867], [-77.0050750000194, 38.98720300023766], [-77.00505999995079, 38.98724900012533], [-77.00503499983644, 38.98729499998311], [-77.00500100039955, 38.98736599984158], [-77.00496899971418, 38.987448999684155], [-77.00495299982066, 38.98748800019912], [-77.00492299968343, 38.9875700000122], [-77.00490699978991, 38.987644999834714], [-77.00489599991926, 38.987720000276006], [-77.00490000011722, 38.98776800029327], [-77.00491400036091, 38.98783199980018], [-77.00494199995, 38.98789500006566], [-77.00497200008725, 38.987925000006086], [-77.00500100039955, 38.987950999711444], [-77.00502200031595, 38.98796000003695], [-77.0051110000044, 38.98799699981129], [-77.00516299988294, 38.988009999651936], [-77.00517799995156, 38.988009999651936], [-77.00526699964001, 38.988007999891465], [-77.00540200025755, 38.988016000329566], [-77.00549799961871, 38.98803199980655], [-77.0055889998553, 38.988035000144436], [-77.00562200036556, 38.9880420000015], [-77.00565699962735, 38.98805999992991], [-77.00567500006902, 38.98807500021587], [-77.00578899987183, 38.98817400006845], [-77.00580899996332, 38.98820499976814], [-77.0058490001463, 38.98824299998963], [-77.00588000010843, 38.988299000058355], [-77.00594000038288, 38.98837000030627], [-77.00601300017783, 38.98842899989752], [-77.0061100002622, 38.98848100032488], [-77.00614600024721, 38.98850500007959], [-77.00626599989782, 38.988636999981374], [-77.00642800027953, 38.98885600010066], [-77.00653799988437, 38.988998999972296], [-77.00684400020612, 38.98933700004381], [-77.00686099992456, 38.98943399980761], [-77.00685500007678, 38.989600000131496], [-77.00678700030473, 38.98968300014745], [-77.00678200028185, 38.98972299998577], [-77.00675200014462, 38.989814000092366], [-77.00643900015017, 38.9899670000462], [-77.0061720001865, 38.99018399984255], [-77.0061029996912, 38.990271999811675], [-77.00606500005637, 38.99043199979259], [-77.00605699966044, 38.99061199977518], [-77.00609500019358, 38.990778999970246], [-77.00616399979057, 38.99093199993276], [-77.0063849997235, 38.99120699979594], [-77.00641599968563, 38.991310000188165], [-77.00635499958626, 38.99147399994072], [-77.00634700008867, 38.99172499974144], [-77.00613399965333, 38.991947000253134], [-77.00604199959183, 38.99206899969693], [-77.00581399998619, 38.9922909998278], [-77.00557700015972, 38.99259500023598], [-77.0054700000296, 38.99269800000464], [-77.00521800013453, 38.992832000089365], [-77.00518700017238, 38.992888999829674], [-77.00524099970075, 38.99314100000542], [-77.00538600036401, 38.99354100017067], [-77.00538600036401, 38.993616999751026], [-77.00538600036401, 38.993713000133155], [-77.00541599960293, 38.99384299980304], [-77.00540899993024, 38.99395299982055], [-77.00536299989949, 38.99410999977791], [-77.00529400030251, 38.99419399988327], [-77.00516500043109, 38.99427000015875], [-77.00508099986719, 38.99426600029324], [-77.00478799996421, 38.99430899970798], [-77.00431799961093, 38.99440700012751], [-77.0042570004099, 38.994440999956396], [-77.00422600044774, 38.994524999668926], [-77.00424900001396, 38.99462100021566], [-77.0043710002127, 38.994777000302804], [-77.00479800000997, 38.99510899993422], [-77.00522599963215, 38.99547500013284], [-77.00537100029541, 38.995559000014396], [-77.0055539996952, 38.995613000334394], [-77.00571400042708, 38.995613000334394], [-77.00585900019203, 38.99552100022994], [-77.00594299985762, 38.995506000125665], [-77.00601900002562, 38.9955099999211], [-77.00626300042308, 38.995623999929066], [-77.00628599998929, 38.99563800023584], [-77.00613500037656, 38.995736999982356], [-77.00595000042863, 38.99586400011728], [-77.00569099996255, 38.99606300000223], [-77.00554600019758, 38.99623800010875], [-77.00542900002172, 38.99643399965835], [-77.00540899993024, 38.99646700014893], [-77.00516500043109, 38.996863999703436], [-77.00480499968265, 38.99742400000118], [-77.00464200037435, 38.997637000297466], [-77.00451000012987, 38.99778100032132], [-77.00433000020482, 38.99792299987363], [-77.00415199992959, 38.99802199991409], [-77.00364499976638, 38.99822499965554], [-77.00347900008502, 38.997645000345244], [-77.0032160003193, 38.996560000179265], [-77.00316299971753, 38.9964329998971], [-77.00305700031063, 38.996132999677904], [-77.00236100000154, 38.99451900024131], [-77.00229200040458, 38.99430899970798], [-77.00225300004652, 38.9939930000384], [-77.00223700015297, 38.99373599971079], [-77.00225800006938, 38.993079999837384], [-77.00224899984856, 38.992549000331564], [-77.0022170000615, 38.99214299981795], [-77.00218299972632, 38.99193100026472], [-77.0021669998328, 38.99186400009929], [-77.00207700031943, 38.99149999973885], [-77.00195500012069, 38.99109500002633], [-77.00178500024137, 38.99057099989697], [-77.00147999974453, 38.98965099984158], [-77.0011049998258, 38.98878100016482], [-77.00085600030378, 38.988293999979206], [-77.00071999986133, 38.98796799978222], [-77.00048200020997, 38.98747700003814], [-77.0001409997281, 38.98696599968983], [-76.99919800044513, 38.98726200010335], [-76.99909200013991, 38.98709799966857], [-76.99903199986545, 38.987022999964765], [-76.99897599978897, 38.98695400025088], [-76.99795399996496, 38.987250999907246], [-76.99743199973312, 38.98741699976477], [-76.99718099966297, 38.987494000222696], [-76.99698099964641, 38.987552999845896], [-76.99681199959201, 38.98760400033261], [-76.99675499969061, 38.987520000086356], [-76.99667299967486, 38.98739799978401], [-76.99659400003213, 38.987280000230115], [-76.99647500020646, 38.987101999939185], [-76.99577999972227, 38.986639999661], [-76.99524599979488, 38.987128999839484], [-76.99501800018925, 38.98734199970069], [-76.99491799973183, 38.9874339999638], [-76.99441499976656, 38.98788399996792], [-76.9941629998715, 38.98813200029604], [-76.99407099980999, 38.98825900011355], [-76.99390599995354, 38.9885499999468], [-76.99383399998352, 38.9887309996979], [-76.99373600007424, 38.98901699965736], [-76.99354500027853, 38.98983899994769], [-76.99304200031328, 38.992156000293505], [-76.99298100021393, 38.992436999892824], [-76.99273699981644, 38.993488999969856], [-76.99262600038668, 38.993969000050036], [-76.9925860002037, 38.994307999916764], [-76.99249999998997, 38.9941490001135], [-76.99208099969033, 38.99345200027361], [-76.99203200018484, 38.99338400034742], [-76.99142999958707, 38.992758999803726], [-76.99109800022437, 38.992405000133886], [-76.99067599955166, 38.99302099993387], [-76.98988399988143, 38.99398600007173], [-76.9890589997009, 38.99557700012562], [-76.98860500013946, 38.99599600025785], [-76.98826500038085, 38.99628800015939], [-76.98757699956936, 38.997269999662954], [-76.98681800040937, 38.998355999846694], [-76.98595100039607, 38.999385000070696], [-76.98569299975489, 38.99998000033426], [-76.98516100037564, 39.00055000022953], [-76.98415000042228, 39.001437999757215], [-76.98367000002325, 39.00220099966038], [-76.98362900001537, 39.00226700013362], [-76.98319999966999, 39.00284000016299], [-76.98256000033571, 39.003779999925754], [-76.98224700034125, 39.004240000011045], [-76.98202100038546, 39.004571000273664], [-76.98165499978923, 39.00511899975879], [-76.9805750002389, 39.00673999973823], [-76.98052800038323, 39.00681100033255], [-76.98046399991082, 39.006902999718505], [-76.98043499959851, 39.006945999830585], [-76.98026100041955, 39.00720099973068], [-76.97998000021217, 39.007535999913294], [-76.9798649996861, 39.00766799991829], [-76.97936099989596, 39.0081329999251], [-76.97809800004751, 39.00980799989822], [-76.97728600028579, 39.01093800031455], [-76.97727799988986, 39.01094699981055], [-76.97714200034574, 39.01113100026814], [-76.9762250001037, 39.01240099982569], [-76.97605699987422, 39.012634000124464], [-76.97592200015501, 39.01282399965313], [-76.97558400004621, 39.01329700033664], [-76.97456499969692, 39.01471399975561], [-76.97384800036976, 39.015635000091585], [-76.97377100037687, 39.01571800027988], [-76.97353399965209, 39.01605599975464], [-76.97217999956705, 39.017989999858855], [-76.97216100019878, 39.01801699983888], [-76.97209699972638, 39.01810900000351], [-76.97191699980131, 39.01832099998791], [-76.97189199968695, 39.01835400004026], [-76.97265900014116, 39.01839899976955], [-76.97347599992575, 39.018488999840145], [-76.976070000293, 39.01895000002646], [-76.9762450001952, 39.018977000337806], [-76.97656999988521, 39.01902299981057], [-76.97677599974955, 39.01905899995363], [-76.9772159999656, 39.019142000310495], [-76.97834400009481, 39.019356000259904], [-76.97900199987076, 39.01948400000488], [-76.97990300021925, 39.0196060001241], [-76.98154799965911, 39.01976100012639], [-76.98188599976791, 39.01977999979261], [-76.98270599992556, 39.0197680003346], [-76.98341599958005, 39.01975799973785], [-76.984369999632, 39.0197209998206], [-76.98523300034567, 39.019621000004086], [-76.98592799993155, 39.01952399974681], [-76.98666000022564, 39.01938999996394], [-76.98746600013958, 39.01922700014618], [-76.98902699991385, 39.0188290003139], [-76.98999000018662, 39.01857999994244], [-76.99182200012255, 39.018097000261925], [-76.99230699964613, 39.017970999711636], [-76.99301300000099, 39.017791999690424], [-76.9941059999701, 39.017540000070134], [-76.99423800021457, 39.01750200022672], [-76.99467099985961, 39.01736500030944], [-76.99523199955118, 39.017200999845535], [-76.99665400030659, 39.01684300033721], [-76.99924799977552, 39.01616499995526], [-77.00050599960109, 39.015823999748], [-77.000738000303, 39.01574000019575], [-77.0024770003525, 39.015350999912805], [-77.00407300028687, 39.01514499987063], [-77.0044840001906, 39.015133000324035], [-77.00452400037356, 39.015132000129086], [-77.00488400022368, 39.01516800015927], [-77.0051460001645, 39.015189000052054], [-77.0053849996408, 39.01521999978269], [-77.00587599991047, 39.015302000265535], [-77.00605800038366, 39.01533599982497], [-77.00626599989782, 39.01539300028149], [-77.00756499973126, 39.01575200033728], [-77.00780300028094, 39.01581699984731], [-77.00801099979509, 39.015876000285], [-77.00868299981474, 39.01605100024089], [-77.00923400035887, 39.01619700013591], [-77.0097859998296, 39.01630499994079], [-77.01051200027592, 39.01637499982964], [-77.01109300005896, 39.0163989998952], [-77.01169399993351, 39.01637499982964], [-77.01220799976942, 39.01632799985208], [-77.01290400007849, 39.016225999763655], [-77.0142699998591, 39.016137999966055], [-77.01481700020527, 39.01604899987691], [-77.01547199960817, 39.01596399971072], [-77.01614100015307, 39.01592100019538], [-77.01648299956152, 39.01581699984731], [-77.0167060000426, 39.01580199985831], [-77.01726900028231, 39.01580800027303], [-77.0176419996529, 39.01581399998932], [-77.01871999955341, 39.015892999928816], [-77.01936499980887, 39.01595100011968], [-77.01951799996975, 39.015972999963054], [-77.02063500022831, 39.01615699990783], [-77.02188399983305, 39.01637499982964], [-77.02270800018866, 39.01652599993217], [-77.02384899983835, 39.01672100033631], [-77.02443499964428, 39.01678100019143], [-77.02526900004564, 39.01682799986789], [-77.02620499965592, 39.016823999881794], [-77.02693199992714, 39.01676999969834], [-77.02758700022837, 39.01668199987975], [-77.02852600021168, 39.01648800024181], [-77.02935300004204, 39.01626099975585], [-77.02992700015241, 39.016046000028766], [-77.03043099994255, 39.015848000000624], [-77.03080400021146, 39.01568000015532], [-77.03140900028394, 39.01537700001103], [-77.03226299987847, 39.01486200001676], [-77.03266999958426, 39.01459900029144], [-77.03331700038785, 39.01421599986573], [-77.03385299996505, 39.01393500020786], [-77.03416699978443, 39.01379000004456], [-77.03442100022764, 39.013684999836954], [-77.03471900015347, 39.01358000017146], [-77.0350530000643, 39.01349499982955], [-77.03536799970857, 39.01342700031999], [-77.03583899988678, 39.01334199979414], [-77.03642700024082, 39.01330500000962], [-77.03698399973442, 39.013284999778456], [-77.03899099957253, 39.01325900030709], [-77.04119999997532, 39.01328199981307], [-77.04183099998708, 39.0133099997175], [-77.04198699962268, 39.0133099997175], [-77.0422269998222, 39.01330799997398], [-77.04257099977879, 39.013319000307675], [-77.04425799994975, 39.013388999662304], [-77.0446699996784, 39.013395999803386], [-77.04485399980142, 39.01340499968456], [-77.04496099993155, 39.01340700012334], [-77.04518799971225, 39.01340700012334], [-77.04655799969082, 39.01343000027918], [-77.04862999982625, 39.013500000221995], [-77.04956799998467, 39.013532000212656], [-77.05103599987251, 39.01354800020256], [-77.05253499972251, 39.01357700021864], [-77.05350200019326, 39.01361600029371], [-77.0543640001837, 39.013657000081], [-77.05462000027673, 39.01366700014468], [-77.05464399966787, 39.01367100030936], [-77.05477500008743, 39.013684000319536], [-77.0550689998153, 39.013886000277395], [-77.05520400043284, 39.01397899974614], [-77.05615199973869, 39.01463000028076], [-77.05621700003603, 39.014675000286], [-77.0565750002363, 39.01489699998607], [-77.05662899976467, 39.01492799984471], [-77.05684399984982, 39.01460900022193], [-77.05699199998783, 39.01439000023426], [-77.05717899958557, 39.01421400014783], [-77.0572079998979, 39.01418800032001], [-77.05742800000593, 39.014130000079085], [-77.0579820000248, 39.01402000002097], [-77.05817799984337, 39.014038999833815], [-77.05930599997261, 39.014123000010706], [-77.06015999956712, 39.0141310002882], [-77.06035799993383, 39.01411700015096], [-77.06075999961675, 39.01405700012941], [-77.06131799983358, 39.01388800000457], [-77.0618059997302, 39.01364599979993], [-77.06231600026645, 39.01330900019479], [-77.06273899986576, 39.01292500023442], [-77.06311799998245, 39.01245400032057], [-77.06346500031208, 39.01185099973357], [-77.06377999995634, 39.011405000259714]]]}}]}